SAUDISAT 1C (SO-50)     
1 27607U 02058C   26188.11499616  .00000749  00000+0  10582-3 0  9997
2 27607  64.5520  67.3282 0074752 258.7570 100.5128 14.83088031267416
SAUDISAT 2              
1 28371U 04025F   26187.94878642  .00000213  00000+0  58559-4 0  9995
2 28371  98.5514 188.4419 0023655 234.4243 125.4749 14.56695117168623
SAUDISAT 3              
1 31118U 07012B   26188.31927166  .00000226  00000+0  44618-4 0  9990
2 31118  98.1464 138.7341 0015076 158.5157 201.6685 14.71437357 30706
PISAT                   
1 41784U 16059B   26188.44224602  .00000817  00000+0  14640-3 0  9997
2 41784  97.8185 188.0251 0030018 138.5610 221.7881 14.69020153522712
FLYING LAPTOP           
1 42831U 17042G   26188.51522817  .00001555  00000+0  12496-3 0  9998
2 42831  97.4784 343.2786 0019894  56.9148 303.3984 15.01277987489509
SALSAT                  
1 46495U 20068K   26187.96288697  .00005977  00000+0  20799-3 0  9990
2 46495  97.8858 192.2352 0008388 224.1445 135.9125 15.30092809318384
